
    {
      "objectName": "STARLINK-35309",
      "objectId": "2025-253E",
      "noradId": 66323,
      "epochUtc": "2026-03-16T15:23:06.562752Z",
      "meanMotionRevPerDay": 15.27599875,
      "eccentricity": 0.0001207,
      "inclinationDeg": 43.0034,
      "raanDeg": 173.5865,
      "argPerigeeDeg": 273.1751,
      "meanAnomalyDeg": 86.8962,
      "bstar": 0.0010891,
      "meanMotionDot": 0.00029848,
      "meanMotionDdot": 0,
      "elementSetNo": 999,
      "revAtEpoch": 2130
    },
    {
      "objectName": "STARLINK-35460",
      "objectId": "2025-253K",
      "noradId": 66328,
      "epochUtc": "2026-03-16T13:41:33.088704Z",
      "meanMotionRevPerDay": 15.27601034,
      "eccentricity": 0.0001046,
      "inclinationDeg": 43.0006,
      "raanDeg": 173.9233,
      "argPerigeeDeg": 282.4097,
      "meanAnomalyDeg": 77.6638,
      "bstar": 0.00057405,
      "meanMotionDot": 0.00015578,
      "meanMotionDdot": 0,
      "elementSetNo": 999,
      "revAtEpoch": 2129
    },
    {
      "objectName": "STARLINK-35218",
      "objectId": "2025-253X",
      "noradId": 66340,
      "epochUtc": "2026-03-16T15:17:33.533088Z",
      "meanMotionRevPerDay": 15.27597934,
      "eccentricity": 0.0001277,
      "inclinationDeg": 43.0015,
      "raanDeg": 173.559,
      "argPerigeeDeg": 298.9263,
      "meanAnomalyDeg": 61.146,
      "bstar": 0.00075962,
      "meanMotionDot": 0.00020711,
      "meanMotionDdot": 0,
      "elementSetNo": 999,
      "revAtEpoch": 2130
    },
    {
      "objectName": "STARLINK-35467",
      "objectId": "2025-253AA",
      "noradId": 66343,
      "epochUtc": "2026-03-16T13:37:51.547008Z",
      "meanMotionRevPerDay": 15.27583454,
      "eccentricity": 0.0001117,
      "inclinationDeg": 43.0005,
      "raanDeg": 173.9021,
      "argPerigeeDeg": 298.1482,
      "meanAnomalyDeg": 61.9257,
      "bstar": 0.00075302,
      "meanMotionDot": 0.00020519,
      "meanMotionDdot": 0,
      "elementSetNo": 999,
      "revAtEpoch": 2129
    },
    {
      "objectName": "STARLINK-36484",
      "objectId": "2026-005A",
      "noradId": 67404,
      "epochUtc": "2026-03-16T17:03:37.382976Z",
      "meanMotionRevPerDay": 15.27582693,
      "eccentricity": 0.0001463,
      "inclinationDeg": 42.9992,
      "raanDeg": 198.0464,
      "argPerigeeDeg": 269.7823,
      "meanAnomalyDeg": 90.2861,
      "bstar": 0.00044646,
      "meanMotionDot": 0.00012045,
      "meanMotionDdot": 0,
      "elementSetNo": 999,
      "revAtEpoch": 977
    },
    {
      "objectName": "STARLINK-36509",
      "objectId": "2026-005E",
      "noradId": 67408,
      "epochUtc": "2026-03-16T17:18:25.709760Z",
      "meanMotionRevPerDay": 15.27592428,
      "eccentricity": 0.0001178,
      "inclinationDeg": 43.0016,
      "raanDeg": 198.1201,
      "argPerigeeDeg": 288.4762,
      "meanAnomalyDeg": 71.5961,
      "bstar": 0.00062815,
      "meanMotionDot": 0.0001707,
      "meanMotionDdot": 0,
      "elementSetNo": 999,
      "revAtEpoch": 976
    },
    {
      "objectName": "STARLINK-36446",
      "objectId": "2026-005J",
      "noradId": 67412,
      "epochUtc": "2026-03-16T17:33:12.463200Z",
      "meanMotionRevPerDay": 15.27596816,
      "eccentricity": 0.000205,
      "inclinationDeg": 43.0047,
      "raanDeg": 198.1999,
      "argPerigeeDeg": 261.625,
      "meanAnomalyDeg": 98.437,
      "bstar": 0.00097125,
      "meanMotionDot": 0.00026575,
      "meanMotionDdot": 0,
      "elementSetNo": 999,
      "revAtEpoch": 977
    },
    {
      "objectName": "STARLINK-36442",
      "objectId": "2026-005K",
      "noradId": 67413,
      "epochUtc": "2026-03-16T17:07:19.377408Z",
      "meanMotionRevPerDay": 15.27600278,
      "eccentricity": 0.0001334,
      "inclinationDeg": 42.9992,
      "raanDeg": 198.0583,
      "argPerigeeDeg": 295.9932,
      "meanAnomalyDeg": 64.0782,
      "bstar": 0.00084219,
      "meanMotionDot": 0.00023,
      "meanMotionDdot": 0,
      "elementSetNo": 999,
      "revAtEpoch": 977
    },
    {
      "objectName": "STARLINK-36424",
      "objectId": "2026-005R",
      "noradId": 67419,
      "epochUtc": "2026-03-16T20:00:01.999008Z",
      "meanMotionRevPerDay": 15.27553228,
      "eccentricity": 0.0001339,
      "inclinationDeg": 43.0009,
      "raanDeg": 197.4343,
      "argPerigeeDeg": 289.943,
      "meanAnomalyDeg": 349.2651,
      "bstar": 0.0019302,
      "meanMotionDot": 0.00053194,
      "meanMotionDdot": 0,
      "elementSetNo": 999,
      "revAtEpoch": 593
    },
    {
      "objectName": "STARLINK-36418",
      "objectId": "2026-005U",
      "noradId": 67422,
      "epochUtc": "2026-03-16T17:01:46.301088Z",
      "meanMotionRevPerDay": 15.27589992,
      "eccentricity": 0.0001161,
      "inclinationDeg": 43.0009,
      "raanDeg": 198.0271,
      "argPerigeeDeg": 271.028,
      "meanAnomalyDeg": 89.0439,
      "bstar": 0.00060408,
      "meanMotionDot": 0.00016403,
      "meanMotionDdot": 0,
      "elementSetNo": 999,
      "revAtEpoch": 977
    },
    {
      "objectName": "STARLINK-36423",
      "objectId": "2026-008D",
      "noradId": 67448,
      "epochUtc": "2026-03-15T23:18:45.340704Z",
      "meanMotionRevPerDay": 15.27567743,
      "eccentricity": 0.00000178,
      "inclinationDeg": 43.0003,
      "raanDeg": 169.6907,
      "argPerigeeDeg": 91.4816,
      "meanAnomalyDeg": 268.6037,
      "bstar": 0.00077358659,
      "meanMotionDot": 0.00021078,
      "meanMotionDdot": 0,
      "elementSetNo": 999,
      "revAtEpoch": 1053
    },
    {
      "objectName": "STARLINK-36525",
      "objectId": "2026-008F",
      "noradId": 67450,
      "epochUtc": "2026-03-16T15:16:58.414080Z",
      "meanMotionRevPerDay": 15.27579426,
      "eccentricity": 0.0000724,
      "inclinationDeg": 43.0034,
      "raanDeg": 166.0832,
      "argPerigeeDeg": 247.6445,
      "meanAnomalyDeg": 112.433,
      "bstar": 0.00051171,
      "meanMotionDot": 0.00013845,
      "meanMotionDdot": 0,
      "elementSetNo": 999,
      "revAtEpoch": 1063
    },
    {
      "objectName": "STARLINK-36493",
      "objectId": "2026-008M",
      "noradId": 67456,
      "epochUtc": "2026-03-15T23:09:29.702304Z",
      "meanMotionRevPerDay": 15.27574678,
      "eccentricity": 0.00013942,
      "inclinationDeg": 42.9982,
      "raanDeg": 169.6364,
      "argPerigeeDeg": 258.0964,
      "meanAnomalyDeg": 101.9731,
      "bstar": 0.0010094539,
      "meanMotionDot": 0.00027616,
      "meanMotionDdot": 0,
      "elementSetNo": 999,
      "revAtEpoch": 1053
    }