STARLINK-35309          
1 66323U 25253E   26075.64104818  .00029848  00000+0  10891-2 0  9990
2 66323  43.0034 173.5865 0001207 273.1751  86.8962 15.27599875 21300
STARLINK-35460          
1 66328U 25253K   26075.57052186  .00015578  00000+0  57405-3 0  9995
2 66328  43.0006 173.9233 0001046 282.4097  77.6638 15.27601034 21291
STARLINK-35218          
1 66340U 25253X   26075.63719367  .00020711  00000+0  75962-3 0  9990
2 66340  43.0015 173.5590 0001277 298.9263  61.1460 15.27597934 21306
STARLINK-35467          
1 66343U 25253AA  26075.56795772  .00020519  00000+0  75302-3 0  9993
2 66343  43.0005 173.9021 0001117 298.1482  61.9257 15.27583454 21291
STARLINK-36484          
1 67404U 26005A   26075.71084934  .00012045  00000+0  44646-3 0  9998
2 67404  42.9992 198.0464 0001463 269.7823  90.2861 15.27582693  9778
STARLINK-36509          
1 67408U 26005E   26075.72113090  .00017070  00000+0  62815-3 0  9990
2 67408  43.0016 198.1201 0001178 288.4762  71.5961 15.27592428  9763
STARLINK-36446          
1 67412U 26005J   26075.73139425  .00026575  00000+0  97125-3 0  9998
2 67412  43.0047 198.1999 0002050 261.6250  98.4370 15.27596816  9779
STARLINK-36442          
1 67413U 26005K   26075.71341872  .00023000  00000+0  84219-3 0  9998
2 67413  42.9992 198.0583 0001334 295.9932  64.0782 15.27600278  9770
STARLINK-36424          
1 67419U 26005R   26075.83335647  .00053194  00000+0  19302-2 0  9997
2 67419  43.0009 197.4343 0001339 289.9430 349.2651 15.27553228  5934
STARLINK-36418          
1 67422U 26005U   26075.70956367  .00016403  00000+0  60408-3 0  9991
2 67422  43.0009 198.0271 0001161 271.0280  89.0439 15.27589992  9779
STARLINK-36423          
1 67448U 26008D   26074.97135811  .00021078  00000+0  77359-3 0  9990
2 67448  43.0003 169.6907 0000017  91.4816 268.6037 15.27567743 10534
STARLINK-36525          
1 67450U 26008F   26075.63678720  .00013845  00000+0  51171-3 0  9995
2 67450  43.0034 166.0832 0000724 247.6445 112.4330 15.27579426 10631
STARLINK-36493          
1 67456U 26008M   26074.96492711  .00027616  00000+0  10095-2 0  9990
2 67456  42.9982 169.6364 0001394 258.0964 101.9731 15.27574678 10533
